NOAA 1 [-]              
1 04793U 70106A   21054.47800721 -.00000044  00000-0  10962-5 0  9990
2 04793 101.6226 124.0264 0032000 172.7821 198.5023 12.53998145298032
NOAA 2 (ITOS-D) [-]     
1 06235U 72082A   21053.89558983 -.00000028  00000-0  10973-3 0  9995
2 06235 101.8907  29.4233 0003838 274.6478 111.8343 12.53132222211904
NOAA 3 [-]              
1 06920U 73086A   21053.72310161 -.00000023  00000-0  16984-3 0  9990
2 06920 102.1445  30.0792 0006522  94.1339 324.5191 12.40342722141313
NOAA 4 [-]              
1 07529U 74089A   21053.87969003 -.00000022  00000-0  15047-3 0  9999
2 07529 101.8485  28.4468 0008901 304.8863  83.0972 12.53147757116474
NOAA 5 [-]              
1 09057U 76077A   21053.70377747 -.00000014  00000-0  23674-3 0  9992
2 09057 102.0273  23.2478 0009881 307.1447 110.9366 12.37757852 14385
TIROS N [-]             
1 11060U 78096A   21053.71154673  .00000019  00000-0  30207-4 0  9999
2 11060  98.7050 113.3653 0011644  84.9535 275.2970 14.18297139403601
NOAA 6 [-]              
1 11416U 79057A   21054.00916892  .00000043  00000-0  31609-4 0  9998
2 11416  98.6659  59.0813 0009485 229.2361 130.8000 14.33619108173037
NOAA 7 [-]              
1 12553U 81059A   21053.81554293 -.00000004  00000-0  20828-4 0  9996
2 12553  99.0619  85.5609 0012095  42.3398 317.8707 14.17290613 49854
NOAA 8 [-]              
1 13923U 83022A   21053.78606128  .00000020  00000-0  25596-4 0  9995
2 13923  98.6455  42.3820 0015276 169.1225 191.0290 14.28726611973912
NOAA 9 [-]              
1 15427U 84123A   21053.85168122  .00000032  00000-0  39145-4 0  9992
2 15427  98.9787  15.5817 0015878  86.0903 303.4873 14.16122872868735
NOAA 10 [-]             
1 16969U 86073A   21053.77013725  .00000023  00000-0  26535-4 0  9998
2 16969  98.5247  45.0474 0011102 281.1331 252.2068 14.28124822792362
NOAA 11 [-]             
1 19531U 88089A   21054.29846217 -.00000003  00000-0  19246-4 0  9993
2 19531  98.4062  65.4548 0012208 117.7265 242.5149 14.15268162673294
NOAA 12 [-]             
1 21263U 91032A   21054.45298694  .00000017  00000-0  24828-4 0  9994
2 21263  98.5062  63.0657 0012646 304.0158  55.9821 14.25933328548729
NOAA 13 [-]             
1 22739U 93050A   21053.91592566  .00000029  00000-0  37795-4 0  9990
2 22739  98.4640  53.9363 0008377 279.0721  80.9504 14.12775926419349
NOAA 14 [-]             
1 23455U 94089A   21054.41810745 -.00000002  00000-0  20780-4 0  9995
2 23455  98.5087 100.5175 0008337 258.9232 101.1005 14.14157311349247
NOAA 15 [B]             
1 25338U 98030A   21054.48897712  .00000036  00000-0  33519-4 0  9993
2 25338  98.6954  83.9607 0009426 250.1510 109.8654 14.26014150185003
NOAA 16 [-]             
1 26536U 00055A   21053.89339018 -.00000003  00000-0  21365-4 0  9999
2 26536  98.7019 122.5983 0011640  94.0200 266.2303 14.13270949349610
NOAA 17 [-]             
1 27453U 02032A   21054.45091541  .00000051  00000-0  40254-4 0  9994
2 27453  98.6163   1.9239 0010830 222.2135 137.8211 14.25089731970648
NOAA 18 [B]             
1 28654U 05018A   21053.77098235  .00000065  00000-0  59908-4 0  9997
2 28654  99.0096 118.1079 0013499 243.3993 116.5795 14.12583374812256
NOAA 19 [+]             
1 33591U 09005A   21054.50272903  .00000005  00000-0  27907-4 0  9999
2 33591  99.1922  72.3354 0014908  92.3007 267.9870 14.12453060620836
SUOMI NPP [+]           
1 37849U 11061A   21054.40768903 -.00000013  00000-0  14447-4 0  9998
2 37849  98.7276 354.6630 0000585  86.4200  24.9603 14.19551392483220
NOAA 20 [+]             
1 43013U 17073A   21054.42137275 -.00000010  00000-0  15970-4 0  9990
2 43013  98.7441 354.7730 0001109  70.5765 289.5531 14.19551025169266
